Account Number,Site,Meter,Address,City,State,Zip
3592118603,,,4300 The Woods Dr Bldg 2,San Jose,CA,95136
3597043846,,,4300 The Woods Dr Bldg 4,San Jose,CA,95136
3594921199,,,4300 The Woods Dr Bldg 7,San Jose,CA,95136
3597615844,,,4300 The Woods Dr Bldg 9,San Jose,CA,95136
3590696528,,,4300 The Woods Dr Bldg 12,San Jose,CA,95136
3596104033,,,4300 The Woods Dr Bldg 14,San Jose,CA,95136
3598845840,,,4300 The Woods Dr Bldg 18,San Jose,CA,95136
3592914733,,,4300 The Woods Dr Bldg 20,San Jose,CA,95136
3599776005,,,4300 The Woods Dr Bldg 20,San Jose,CA,95136
3598232095,,,4300 The Woods Dr Bldg 24,San Jose,CA,95136
3598355484,,,4300 The Woods Dr,San Jose,CA,95136
0397712112,,,4400 The Woods Dr,San Jose,CA,95136
0134323915,,,4500 The Woods Dr BLDG 21,San Jose,CA,95136
0396064841,,,4400 The Woods Dr,San Jose,CA,95136
0395044940,,,4400 The Woods Dr,San Jose,CA,95136
8116346155,,,4951 Cherry Ave APT 9,San Jose,CA,95118
0392040465,,,4400 The Woods Dr,San Jose,CA,95136
0397984424,,,4400 The Woods Dr,San Jose,CA,95136
0137253869,,,4500 The Woods Dr BLDG 4,San Jose,CA,95136
0136389215,,,4500 The Woods Dr BLDG 8,San Jose,CA,95136
0398037926,,,4400 The Woods Dr,San Jose,CA,95136
0391053586,,,4400 The Woods Dr,San Jose,CA,95136
0397430295,,,4400 The Woods Dr,San Jose,CA,95136
0135839446,,,4500 The Woods Dr BLDG 31,San Jose,CA,95136
4736522937,,,4951 CHERRY AVE LAUNDRY \& REC CENTER,San Jose,CA,95118
4736522183,,,4951 CHERRY AVE POOL BOILER-GYM,San Jose,CA,95118
0398902408,,,4400 The Woods Dr,San Jose,CA,95136
8116346130,,,4951 Cherry Ave APT 14,San Jose,CA,95118
0390666251,,,4400 The Woods Dr,San Jose,CA,95136
0131862709,,,4500 The Woods Dr BLDG 24,San Jose,CA,95136
0132832461,,,4500 The Woods Dr BLDG 28,San Jose,CA,95136
0138672461,,,4500 The Woods Dr BLDG 19,San Jose,CA,95136
0131976558,,,4500 The Woods Dr BLDG 17,San Jose,CA,95136
4736522626,,,4951 CHERRY AVE LAUNDRY ROOM BLDG \#23,San Jose,CA,95118
0131507247,,,4500 The Woods Dr BLDG 2,San Jose,CA,95136
5436943720,,,4500 The Woods Dr BLDG POOL,San Jose,CA,95136
0397037581,,,4400 The Woods Dr,San Jose,CA,95136
8116346180,,,4951 Cherry Ave APT 7,San Jose,CA,95118
0138902868,,,4500 The Woods Dr BLDG 12,San Jose,CA,95136
0131818898,,,4500 The Woods Dr BLDG 18,San Jose,CA,95136
0138639562,,,4500 The Woods Dr BLDG 29,San Jose,CA,95136
0136152382,,,4500 The Woods Dr BLDG 26,San Jose,CA,95136
0131961891,,,4500 The Woods Dr BLDG 14,San Jose,CA,95136
0133770998,,,4500 The Woods Dr BLDG 30,San Jose,CA,95136
9398507638,,,4950 Cherry Ave APT 6,San Jose,CA,95118
0134836747,,,4500 The Woods Dr BLDG 22,San Jose,CA,95136
0390774630,,,4400 The Woods Dr,San Jose,CA,95136
0392966154,,,4400 The Woods Dr,San Jose,CA,95136
0131183016,,,4500 The Woods Dr BLDG 6,San Jose,CA,95136
0134700551,,,4500 The Woods Dr BLDG 15,San Jose,CA,95136
0130968027,,,4500 The Woods Dr BLDG 5,San Jose,CA,95136
0130813029,,,4500 The Woods Dr BLDG 20,San Jose,CA,95136
2074678080,,,4950 Cherry Ave APT 10,San Jose,CA,95118
0139071378,,,4500 The Woods Dr BLDG 23,San Jose,CA,95136
2074678130,,,4950 Cherry Ave APT 17 RM Rec,San Jose,CA,95118
8116346050,,,4951 CHERRY AVE HSE MTR 24-18-4,San Jose,CA,95118
0136550944,,,4500 The Woods Dr BLDG 10,San Jose,CA,95136
0137845298,,,4500 The Woods Dr BLDG 11,San Jose,CA,95136
0396590621,,,4400 The Woods Dr,San Jose,CA,95136
8116346025,,,4951 CHERRY AVE HSE MTR 1-2-3-5,San Jose,CA,95118
